PROPCUBE 3              
1 40973U 15058K   26068.73202292  .00005546  00000+0  46586-3 0  9992
2 40973  64.7688 203.0958 0123527  99.6156 261.8939 14.93528956 99948
STARLINK-4216           
1 53022U 22076AN  26068.28182862 -.00000186  00000+0  63943-5 0  9993
2 53022  53.2168  85.9525 0001268  89.9874 270.1264 15.08834943202927
